{
  "type": "FeatureCollection",
  "properties": {
    "source": "Copernicus Land Monitoring Service",
    "version": "2018-Romania-Simplified-v1",
    "last_updated": "2024-01-01",
    "description": "Simplified Romania land cover zones derived from Copernicus/CORINE CLC 2018. Replace this file with the official CLC 2018 GeoJSON export for full resolution data.",
    "crs": "EPSG:4326",
    "classification_system": "CORINE Land Cover (CLC)",
    "coverage": "Romania",
    "note": "Coordinates are [longitude, latitude] per GeoJSON spec (EPSG:4326)."
  },
  "features": [
    {"type":"Feature","properties":{"label":"Bucharest Metropolitan Area","clc_code":112,"land_cover_type":"urban","confidence":0.97},"geometry":{"type":"Polygon","coordinates":[[[25.96,44.34],[26.22,44.34],[26.22,44.56],[25.96,44.56],[25.96,44.34]]]}},
    {"type":"Feature","properties":{"label":"Cluj-Napoca","clc_code":112,"land_cover_type":"urban","confidence":0.96},"geometry":{"type":"Polygon","coordinates":[[[23.55,46.72],[23.67,46.72],[23.67,46.82],[23.55,46.82],[23.55,46.72]]]}},
    {"type":"Feature","properties":{"label":"Iași","clc_code":112,"land_cover_type":"urban","confidence":0.96},"geometry":{"type":"Polygon","coordinates":[[[27.55,47.13],[27.65,47.13],[27.65,47.22],[27.55,47.22],[27.55,47.13]]]}},
    {"type":"Feature","properties":{"label":"Timișoara","clc_code":112,"land_cover_type":"urban","confidence":0.96},"geometry":{"type":"Polygon","coordinates":[[[21.18,45.72],[21.30,45.72],[21.30,45.80],[21.18,45.80],[21.18,45.72]]]}},
    {"type":"Feature","properties":{"label":"Constanța","clc_code":112,"land_cover_type":"urban","confidence":0.95},"geometry":{"type":"Polygon","coordinates":[[[28.57,44.16],[28.68,44.16],[28.68,44.25],[28.57,44.25],[28.57,44.16]]]}},
    {"type":"Feature","properties":{"label":"Brașov","clc_code":112,"land_cover_type":"urban","confidence":0.95},"geometry":{"type":"Polygon","coordinates":[[[25.53,45.62],[25.63,45.62],[25.63,45.70],[25.53,45.70],[25.53,45.62]]]}},
    {"type":"Feature","properties":{"label":"Craiova","clc_code":112,"land_cover_type":"urban","confidence":0.95},"geometry":{"type":"Polygon","coordinates":[[[23.77,44.28],[23.87,44.28],[23.87,44.36],[23.77,44.36],[23.77,44.28]]]}},
    {"type":"Feature","properties":{"label":"Galați","clc_code":112,"land_cover_type":"urban","confidence":0.94},"geometry":{"type":"Polygon","coordinates":[[[27.96,45.42],[28.07,45.42],[28.07,45.50],[27.96,45.50],[27.96,45.42]]]}},
    {"type":"Feature","properties":{"label":"Ploiești","clc_code":112,"land_cover_type":"urban","confidence":0.95},"geometry":{"type":"Polygon","coordinates":[[[25.99,44.92],[26.09,44.92],[26.09,45.00],[25.99,45.00],[25.99,44.92]]]}},
    {"type":"Feature","properties":{"label":"Oradea","clc_code":112,"land_cover_type":"urban","confidence":0.94},"geometry":{"type":"Polygon","coordinates":[[[21.91,47.01],[22.02,47.01],[22.02,47.10],[21.91,47.10],[21.91,47.01]]]}},
    {"type":"Feature","properties":{"label":"Sibiu","clc_code":112,"land_cover_type":"urban","confidence":0.94},"geometry":{"type":"Polygon","coordinates":[[[24.12,45.78],[24.22,45.78],[24.22,45.86],[24.12,45.86],[24.12,45.78]]]}},
    {"type":"Feature","properties":{"label":"Brăila","clc_code":112,"land_cover_type":"urban","confidence":0.94},"geometry":{"type":"Polygon","coordinates":[[[27.95,45.26],[28.03,45.26],[28.03,45.33],[27.95,45.33],[27.95,45.26]]]}},
    {"type":"Feature","properties":{"label":"Arad","clc_code":112,"land_cover_type":"urban","confidence":0.93},"geometry":{"type":"Polygon","coordinates":[[[21.29,46.14],[21.40,46.14],[21.40,46.22],[21.29,46.22],[21.29,46.14]]]}},
    {"type":"Feature","properties":{"label":"Bacău","clc_code":112,"land_cover_type":"urban","confidence":0.94},"geometry":{"type":"Polygon","coordinates":[[[26.87,46.56],[26.97,46.56],[26.97,46.62],[26.87,46.62],[26.87,46.56]]]}},
    {"type":"Feature","properties":{"label":"Pitești","clc_code":112,"land_cover_type":"urban","confidence":0.94},"geometry":{"type":"Polygon","coordinates":[[[24.85,44.84],[24.96,44.84],[24.96,44.92],[24.85,44.92],[24.85,44.84]]]}},
    {"type":"Feature","properties":{"label":"Suceava","clc_code":112,"land_cover_type":"urban","confidence":0.93},"geometry":{"type":"Polygon","coordinates":[[[26.22,47.61],[26.32,47.61],[26.32,47.68],[26.22,47.68],[26.22,47.61]]]}},
    {"type":"Feature","properties":{"label":"Târgu Mureș","clc_code":112,"land_cover_type":"urban","confidence":0.93},"geometry":{"type":"Polygon","coordinates":[[[24.54,46.54],[24.64,46.54],[24.64,46.61],[24.54,46.61],[24.54,46.54]]]}},
    {"type":"Feature","properties":{"label":"Deva","clc_code":112,"land_cover_type":"urban","confidence":0.92},"geometry":{"type":"Polygon","coordinates":[[[22.88,45.87],[22.97,45.87],[22.97,45.94],[22.88,45.94],[22.88,45.87]]]}},
    {"type":"Feature","properties":{"label":"Drobeta-Turnu Severin","clc_code":112,"land_cover_type":"urban","confidence":0.92},"geometry":{"type":"Polygon","coordinates":[[[22.62,44.60],[22.72,44.60],[22.72,44.69],[22.62,44.69],[22.62,44.60]]]}},
    {"type":"Feature","properties":{"label":"Reșița","clc_code":112,"land_cover_type":"urban","confidence":0.92},"geometry":{"type":"Polygon","coordinates":[[[21.85,45.28],[21.95,45.28],[21.95,45.36],[21.85,45.36],[21.85,45.28]]]}},

    {"type":"Feature","properties":{"label":"Danube Delta","clc_code":511,"land_cover_type":"water","confidence":0.97},"geometry":{"type":"Polygon","coordinates":[[[28.80,44.80],[30.50,44.80],[30.50,45.50],[28.80,45.50],[28.80,44.80]]]}},
    {"type":"Feature","properties":{"label":"Black Sea Coast Waters","clc_code":521,"land_cover_type":"water","confidence":0.99},"geometry":{"type":"Polygon","coordinates":[[[29.40,43.70],[30.30,43.70],[30.30,44.90],[29.40,44.90],[29.40,43.70]]]}},
    {"type":"Feature","properties":{"label":"Bicaz Reservoir (Izvorul Muntelui)","clc_code":512,"land_cover_type":"water","confidence":0.95},"geometry":{"type":"Polygon","coordinates":[[[26.00,46.85],[26.25,46.85],[26.25,47.05],[26.00,47.05],[26.00,46.85]]]}},
    {"type":"Feature","properties":{"label":"Danube Floodplain West","clc_code":511,"land_cover_type":"water","confidence":0.88},"geometry":{"type":"Polygon","coordinates":[[[22.50,43.50],[25.00,43.50],[25.00,43.90],[22.50,43.90],[22.50,43.50]]]}},
    {"type":"Feature","properties":{"label":"Danube Floodplain East","clc_code":511,"land_cover_type":"water","confidence":0.88},"geometry":{"type":"Polygon","coordinates":[[[25.00,43.50],[28.80,43.50],[28.80,43.90],[25.00,43.90],[25.00,43.50]]]}},
    {"type":"Feature","properties":{"label":"Siret River Corridor","clc_code":511,"land_cover_type":"water","confidence":0.82},"geometry":{"type":"Polygon","coordinates":[[[26.92,45.80],[27.10,45.80],[27.10,47.90],[26.92,47.90],[26.92,45.80]]]}},

    {"type":"Feature","properties":{"label":"Eastern Carpathians North (Suceava-Bistrița)","clc_code":311,"land_cover_type":"forest","confidence":0.93},"geometry":{"type":"Polygon","coordinates":[[[25.20,47.00],[26.80,47.00],[26.80,48.20],[25.20,48.20],[25.20,47.00]]]}},
    {"type":"Feature","properties":{"label":"Eastern Carpathians Central (Harghita-Neamț)","clc_code":311,"land_cover_type":"forest","confidence":0.92},"geometry":{"type":"Polygon","coordinates":[[[25.50,46.30],[26.90,46.30],[26.90,47.10],[25.50,47.10],[25.50,46.30]]]}},
    {"type":"Feature","properties":{"label":"Eastern Carpathians South (Vrancea-Buzău)","clc_code":311,"land_cover_type":"forest","confidence":0.91},"geometry":{"type":"Polygon","coordinates":[[[26.00,45.50],[27.50,45.50],[27.50,46.40],[26.00,46.40],[26.00,45.50]]]}},
    {"type":"Feature","properties":{"label":"Southern Carpathians West (Retezat-Parâng)","clc_code":311,"land_cover_type":"forest","confidence":0.93},"geometry":{"type":"Polygon","coordinates":[[[22.50,45.10],[24.50,45.10],[24.50,45.80],[22.50,45.80],[22.50,45.10]]]}},
    {"type":"Feature","properties":{"label":"Southern Carpathians East (Bucegi-Piatra Craiului)","clc_code":311,"land_cover_type":"forest","confidence":0.92},"geometry":{"type":"Polygon","coordinates":[[[24.50,45.10],[25.80,45.10],[25.80,45.80],[24.50,45.80],[24.50,45.10]]]}},
    {"type":"Feature","properties":{"label":"Apuseni Mountains","clc_code":312,"land_cover_type":"forest","confidence":0.91},"geometry":{"type":"Polygon","coordinates":[[[22.00,46.00],[23.50,46.00],[23.50,47.00],[22.00,47.00],[22.00,46.00]]]}},
    {"type":"Feature","properties":{"label":"Maramureș Mountains","clc_code":311,"land_cover_type":"forest","confidence":0.93},"geometry":{"type":"Polygon","coordinates":[[[23.50,47.50],[25.00,47.50],[25.00,48.30],[23.50,48.30],[23.50,47.50]]]}},
    {"type":"Feature","properties":{"label":"Retezat National Park","clc_code":311,"land_cover_type":"forest","confidence":0.95},"geometry":{"type":"Polygon","coordinates":[[[22.50,45.20],[23.30,45.20],[23.30,45.60],[22.50,45.60],[22.50,45.20]]]}},
    {"type":"Feature","properties":{"label":"Bucovina Forest Reserve","clc_code":311,"land_cover_type":"forest","confidence":0.94},"geometry":{"type":"Polygon","coordinates":[[[25.00,47.50],[26.00,47.50],[26.00,48.30],[25.00,48.30],[25.00,47.50]]]}},
    {"type":"Feature","properties":{"label":"Semenic Mountains","clc_code":311,"land_cover_type":"forest","confidence":0.91},"geometry":{"type":"Polygon","coordinates":[[[21.70,45.10],[22.40,45.10],[22.40,45.60],[21.70,45.60],[21.70,45.10]]]}},

    {"type":"Feature","properties":{"label":"Sub-Carpathians Moldovei","clc_code":321,"land_cover_type":"near_forest","confidence":0.80},"geometry":{"type":"Polygon","coordinates":[[[26.80,46.30],[28.00,46.30],[28.00,47.30],[26.80,47.30],[26.80,46.30]]]}},
    {"type":"Feature","properties":{"label":"Sub-Carpathians Muntenia","clc_code":321,"land_cover_type":"near_forest","confidence":0.78},"geometry":{"type":"Polygon","coordinates":[[[25.50,44.80],[27.00,44.80],[27.00,45.50],[25.50,45.50],[25.50,44.80]]]}},
    {"type":"Feature","properties":{"label":"Dobrogea Hills","clc_code":322,"land_cover_type":"near_forest","confidence":0.75},"geometry":{"type":"Polygon","coordinates":[[[27.80,44.00],[28.60,44.00],[28.60,44.80],[27.80,44.80],[27.80,44.00]]]}},
    {"type":"Feature","properties":{"label":"Northern Transylvania Hills","clc_code":323,"land_cover_type":"near_forest","confidence":0.77},"geometry":{"type":"Polygon","coordinates":[[[23.50,47.00],[25.50,47.00],[25.50,47.70],[23.50,47.70],[23.50,47.00]]]}},
    {"type":"Feature","properties":{"label":"Covasna Hills","clc_code":321,"land_cover_type":"near_forest","confidence":0.79},"geometry":{"type":"Polygon","coordinates":[[[25.80,45.70],[26.80,45.70],[26.80,46.30],[25.80,46.30],[25.80,45.70]]]}},
    {"type":"Feature","properties":{"label":"Transylvanian Plateau Hills","clc_code":323,"land_cover_type":"near_forest","confidence":0.76},"geometry":{"type":"Polygon","coordinates":[[[23.80,45.80],[25.50,45.80],[25.50,46.80],[23.80,46.80],[23.80,45.80]]]}},
    {"type":"Feature","properties":{"label":"Sub-Carpathians Olteniei","clc_code":321,"land_cover_type":"near_forest","confidence":0.78},"geometry":{"type":"Polygon","coordinates":[[[23.00,44.80],[24.50,44.80],[24.50,45.30],[23.00,45.30],[23.00,44.80]]]}},

    {"type":"Feature","properties":{"label":"Wallachian Plain West","clc_code":211,"land_cover_type":"agriculture","confidence":0.87},"geometry":{"type":"Polygon","coordinates":[[[23.50,43.70],[25.50,43.70],[25.50,44.90],[23.50,44.90],[23.50,43.70]]]}},
    {"type":"Feature","properties":{"label":"Wallachian Plain East","clc_code":211,"land_cover_type":"agriculture","confidence":0.88},"geometry":{"type":"Polygon","coordinates":[[[25.50,43.70],[28.00,43.70],[28.00,44.90],[25.50,44.90],[25.50,43.70]]]}},
    {"type":"Feature","properties":{"label":"Moldavian Plateau North","clc_code":211,"land_cover_type":"agriculture","confidence":0.85},"geometry":{"type":"Polygon","coordinates":[[[27.00,47.00],[29.50,47.00],[29.50,47.80],[27.00,47.80],[27.00,47.00]]]}},
    {"type":"Feature","properties":{"label":"Moldavian Plateau South","clc_code":211,"land_cover_type":"agriculture","confidence":0.86},"geometry":{"type":"Polygon","coordinates":[[[27.50,46.30],[29.00,46.30],[29.00,47.00],[27.50,47.00],[27.50,46.30]]]}},
    {"type":"Feature","properties":{"label":"Banat Plain","clc_code":211,"land_cover_type":"agriculture","confidence":0.87},"geometry":{"type":"Polygon","coordinates":[[[20.50,45.30],[21.80,45.30],[21.80,46.30],[20.50,46.30],[20.50,45.30]]]}},
    {"type":"Feature","properties":{"label":"Crișana-Maramureș Plain","clc_code":211,"land_cover_type":"agriculture","confidence":0.86},"geometry":{"type":"Polygon","coordinates":[[[21.50,46.00],[22.80,46.00],[22.80,47.60],[21.50,47.60],[21.50,46.00]]]}},
    {"type":"Feature","properties":{"label":"Bărăgan Steppe","clc_code":211,"land_cover_type":"agriculture","confidence":0.88},"geometry":{"type":"Polygon","coordinates":[[[27.00,44.30],[28.50,44.30],[28.50,45.20],[27.00,45.20],[27.00,44.30]]]}},
    {"type":"Feature","properties":{"label":"Dobrogea Plateau","clc_code":213,"land_cover_type":"agriculture","confidence":0.83},"geometry":{"type":"Polygon","coordinates":[[[28.00,43.70],[29.50,43.70],[29.50,44.70],[28.00,44.70],[28.00,43.70]]]}},
    {"type":"Feature","properties":{"label":"Lower Danube Plain","clc_code":211,"land_cover_type":"agriculture","confidence":0.85},"geometry":{"type":"Polygon","coordinates":[[[28.50,44.50],[30.00,44.50],[30.00,45.50],[28.50,45.50],[28.50,44.50]]]}}
  ]
}
